STARLINK-2412
1 18094C 21027C   21326.17798198  .00001296  00000-0  86878-4 0  3264
2 18094  53.0543  12.9476 0001347  64.4189 211.0791 15.06387440    13
